{
  "norad_id": 55821,
  "name": "ONEWEB-0661",
  "history": [
    {
      "epoch": "2026-03-28T20:34:28.018272Z",
      "apogee_km": 1207.135364259294,
      "perigee_km": 1204.4612686667097,
      "latitude_deg": 4.769872486566619e-05,
      "longitude_deg": 170.8952604180089,
      "height_km": 1208.8346851175143,
      "semi_major_axis_km": 7583.935316463002,
      "eccentricity": 0.0001763,
      "inclination_deg": 87.8943,
      "raan_deg": 305.7837,
      "arg_perigee_deg": 96.2473,
      "mean_anomaly_deg": 263.8858,
      "mean_motion_rev_day": 13.1450073
    },
    {
      "epoch": "2026-03-29T03:52:54.329088Z",
      "apogee_km": 1207.1335336411357,
      "perigee_km": 1204.45792217473,
      "latitude_deg": 4.1937099323275944e-05,
      "longitude_deg": 60.924731334840175,
      "height_km": 1208.835647869729,
      "semi_major_axis_km": 7583.9327279079325,
      "eccentricity": 0.0001764,
      "inclination_deg": 87.8943,
      "raan_deg": 305.7229,
      "arg_perigee_deg": 96.3967,
      "mean_anomaly_deg": 263.7364,
      "mean_motion_rev_day": 13.14501403
    },
    {
      "epoch": "2026-03-30T01:48:13.468896Z",
      "apogee_km": 1207.1357143338164,
      "perigee_km": 1204.4616186178173,
      "latitude_deg": -5.458796603587663e-05,
      "longitude_deg": 91.01247525395333,
      "height_km": 1208.8339421032176,
      "semi_major_axis_km": 7583.935666475817,
      "eccentricity": 0.0001763,
      "inclination_deg": 87.8941,
      "raan_deg": 305.5407,
      "arg_perigee_deg": 96.1996,
      "mean_anomaly_deg": 263.9334,
      "mean_motion_rev_day": 13.14500639
    }
  ]
}